STARLINK-36924          
1 68054U 26041Q   26079.35196858  .00111708  00000+0  72205-3 0  9991
2 68054  53.1608   8.7844 0000844 120.0749 240.0356 15.75278883  2903
STARLINK-35998          
1 68055U 26041R   26079.52451400  .00308541  00000+0  15045-2 0  9999
2 68055  53.1599   7.7187 0001068  66.3083 293.8051 15.80975256  2939
STARLINK-36845          
1 68056U 26041S   26079.52301961  .00396197  00000+0  19090-2 0  9994
2 68056  53.1597   7.7089 0002302  64.7296 295.3965 15.81000429  2932
STARLINK-36954          
1 68057U 26041T   26079.41509041  .00173455  00000+0  11105-2 0  9991
2 68057  53.1605   8.4663 0001783  43.4746 316.6415 15.75281927  2917
STARLINK-36899          
1 68058U 26041U   26079.28398528  .00134187  00000+0  86401-3 0  9994
2 68058  53.1604   9.0679 0000871  90.3239 269.7881 15.75284309  2895
STARLINK-36917          
1 68059U 26041V   26079.50001156 -.00038101  00000+0 -24527-3 0  9990
2 68059  53.1598   7.8858 0001192  81.8566 117.3704 15.75259749  4117
STARLINK-36959          
1 68060U 26041W   26079.50001156  .00025813  00000+0  17210-3 0  9997
2 68060  53.1602   7.9414 0001000  63.7272 107.8919 15.75231363  4119
STARLINK-36915          
1 68061U 26041X   26079.51926649  .00436746  00000+0  20928-2 0  9992
2 68061  53.1595   7.6821 0001952  68.0246 292.0984 15.81014005  2931
STARLINK-36952          
1 68062U 26041Y   26079.41055291  .00159629  00000+0  10243-2 0  9999
2 68062  53.1606   8.4359 0001897  52.0891 308.0300 15.75275482  2916
STARLINK-37000          
1 68063U 26041Z   26078.37981295 -.00024486  00000+0 -12107-3 0  9992
2 68063  53.1597  13.3751 0000387 129.0929 231.0129 15.80839388  2750
STARLINK-36996          
1 68064U 26041AA  26079.51701362  .00330547  00000+0  16069-2 0  9991
2 68064  53.1596   7.6672 0001552  74.0326 286.0867 15.80981385  2937
STARLINK-36836          
1 68065U 26041AB  26079.51551132  .00339144  00000+0  16463-2 0  9990
2 68065  53.1596   7.6568 0001201  53.3850 306.7284 15.80990691  2938
