CCSDS_OMM_VERS = 2.0
CREATION_DATE  = 
ORIGINATOR     = 

OBJECT_NAME    = STARLINK-36924
OBJECT_ID      = 2026-041Q
CENTER_NAME    = EARTH
REF_FRAME      = TEME
TIME_SYSTEM    = UTC
MEAN_ELEMENT_THEORY = SGP/SGP4

EPOCH          = 2026-03-20T08:26:50.085312
MEAN_MOTION    = 15.75278883
ECCENTRICITY   = .0000844
INCLINATION    = 53.1608
RA_OF_ASC_NODE = 8.7844
ARG_OF_PERICENTER = 120.0749
MEAN_ANOMALY   = 240.0356

EPHEMERIS_TYPE = 0
CLASSIFICATION_TYPE = U
NORAD_CAT_ID   = 68054
ELEMENT_SET_NO = 999
REV_AT_EPOCH   = 290
BSTAR          = .72205E-3
MEAN_MOTION_DOT = .111708E-2
MEAN_MOTION_DDOT = 0

CCSDS_OMM_VERS = 2.0
CREATION_DATE  = 
ORIGINATOR     = 

OBJECT_NAME    = STARLINK-35998
OBJECT_ID      = 2026-041R
CENTER_NAME    = EARTH
REF_FRAME      = TEME
TIME_SYSTEM    = UTC
MEAN_ELEMENT_THEORY = SGP/SGP4

EPOCH          = 2026-03-20T12:35:18.009600
MEAN_MOTION    = 15.80975256
ECCENTRICITY   = .0001068
INCLINATION    = 53.1599
RA_OF_ASC_NODE = 7.7187
ARG_OF_PERICENTER = 66.3083
MEAN_ANOMALY   = 293.8051

EPHEMERIS_TYPE = 0
CLASSIFICATION_TYPE = U
NORAD_CAT_ID   = 68055
ELEMENT_SET_NO = 999
REV_AT_EPOCH   = 293
BSTAR          = .15045E-2
MEAN_MOTION_DOT = .308541E-2
MEAN_MOTION_DDOT = 0

CCSDS_OMM_VERS = 2.0
CREATION_DATE  = 
ORIGINATOR     = 

OBJECT_NAME    = STARLINK-36845
OBJECT_ID      = 2026-041S
CENTER_NAME    = EARTH
REF_FRAME      = TEME
TIME_SYSTEM    = UTC
MEAN_ELEMENT_THEORY = SGP/SGP4

EPOCH          = 2026-03-20T12:33:08.894304
MEAN_MOTION    = 15.81000429
ECCENTRICITY   = .0002302
INCLINATION    = 53.1597
RA_OF_ASC_NODE = 7.7089
ARG_OF_PERICENTER = 64.7296
MEAN_ANOMALY   = 295.3965

EPHEMERIS_TYPE = 0
CLASSIFICATION_TYPE = U
NORAD_CAT_ID   = 68056
ELEMENT_SET_NO = 999
REV_AT_EPOCH   = 293
BSTAR          = .1909E-2
MEAN_MOTION_DOT = .396197E-2
MEAN_MOTION_DDOT = 0

CCSDS_OMM_VERS = 2.0
CREATION_DATE  = 
ORIGINATOR     = 

OBJECT_NAME    = STARLINK-36954
OBJECT_ID      = 2026-041T
CENTER_NAME    = EARTH
REF_FRAME      = TEME
TIME_SYSTEM    = UTC
MEAN_ELEMENT_THEORY = SGP/SGP4

EPOCH          = 2026-03-20T09:57:43.811424
MEAN_MOTION    = 15.75281927
ECCENTRICITY   = .0001783
INCLINATION    = 53.1605
RA_OF_ASC_NODE = 8.4663
ARG_OF_PERICENTER = 43.4746
MEAN_ANOMALY   = 316.6415

EPHEMERIS_TYPE = 0
CLASSIFICATION_TYPE = U
NORAD_CAT_ID   = 68057
ELEMENT_SET_NO = 999
REV_AT_EPOCH   = 291
BSTAR          = .11105E-2
MEAN_MOTION_DOT = .173455E-2
MEAN_MOTION_DDOT = 0

CCSDS_OMM_VERS = 2.0
CREATION_DATE  = 
ORIGINATOR     = 

OBJECT_NAME    = STARLINK-36899
OBJECT_ID      = 2026-041U
CENTER_NAME    = EARTH
REF_FRAME      = TEME
TIME_SYSTEM    = UTC
MEAN_ELEMENT_THEORY = SGP/SGP4

EPOCH          = 2026-03-20T06:48:56.328192
MEAN_MOTION    = 15.75284309
ECCENTRICITY   = .0000871
INCLINATION    = 53.1604
RA_OF_ASC_NODE = 9.0679
ARG_OF_PERICENTER = 90.3239
MEAN_ANOMALY   = 269.7881

EPHEMERIS_TYPE = 0
CLASSIFICATION_TYPE = U
NORAD_CAT_ID   = 68058
ELEMENT_SET_NO = 999
REV_AT_EPOCH   = 289
BSTAR          = .86401E-3
MEAN_MOTION_DOT = .134187E-2
MEAN_MOTION_DDOT = 0

CCSDS_OMM_VERS = 2.0
CREATION_DATE  = 
ORIGINATOR     = 

OBJECT_NAME    = STARLINK-36917
OBJECT_ID      = 2026-041V
CENTER_NAME    = EARTH
REF_FRAME      = TEME
TIME_SYSTEM    = UTC
MEAN_ELEMENT_THEORY = SGP/SGP4

EPOCH          = 2026-03-20T12:00:00.998784
MEAN_MOTION    = 15.75259749
ECCENTRICITY   = .0001192
INCLINATION    = 53.1598
RA_OF_ASC_NODE = 7.8858
ARG_OF_PERICENTER = 81.8566
MEAN_ANOMALY   = 117.3704

EPHEMERIS_TYPE = 0
CLASSIFICATION_TYPE = U
NORAD_CAT_ID   = 68059
ELEMENT_SET_NO = 999
REV_AT_EPOCH   = 411
BSTAR          = -.24527E-3
MEAN_MOTION_DOT = -.38101E-3
MEAN_MOTION_DDOT = 0

CCSDS_OMM_VERS = 2.0
CREATION_DATE  = 
ORIGINATOR     = 

OBJECT_NAME    = STARLINK-36959
OBJECT_ID      = 2026-041W
CENTER_NAME    = EARTH
REF_FRAME      = TEME
TIME_SYSTEM    = UTC
MEAN_ELEMENT_THEORY = SGP/SGP4

EPOCH          = 2026-03-20T12:00:00.998784
MEAN_MOTION    = 15.75231363
ECCENTRICITY   = .0001
INCLINATION    = 53.1602
RA_OF_ASC_NODE = 7.9414
ARG_OF_PERICENTER = 63.7272
MEAN_ANOMALY   = 107.8919

EPHEMERIS_TYPE = 0
CLASSIFICATION_TYPE = U
NORAD_CAT_ID   = 68060
ELEMENT_SET_NO = 999
REV_AT_EPOCH   = 411
BSTAR          = .1721E-3
MEAN_MOTION_DOT = .25813E-3
MEAN_MOTION_DDOT = 0

CCSDS_OMM_VERS = 2.0
CREATION_DATE  = 
ORIGINATOR     = 

OBJECT_NAME    = STARLINK-36915
OBJECT_ID      = 2026-041X
CENTER_NAME    = EARTH
REF_FRAME      = TEME
TIME_SYSTEM    = UTC
MEAN_ELEMENT_THEORY = SGP/SGP4

EPOCH          = 2026-03-20T12:27:44.624736
MEAN_MOTION    = 15.81014005
ECCENTRICITY   = .0001952
INCLINATION    = 53.1595
RA_OF_ASC_NODE = 7.6821
ARG_OF_PERICENTER = 68.0246
MEAN_ANOMALY   = 292.0984

EPHEMERIS_TYPE = 0
CLASSIFICATION_TYPE = U
NORAD_CAT_ID   = 68061
ELEMENT_SET_NO = 999
REV_AT_EPOCH   = 293
BSTAR          = .20928E-2
MEAN_MOTION_DOT = .436746E-2
MEAN_MOTION_DDOT = 0

CCSDS_OMM_VERS = 2.0
CREATION_DATE  = 
ORIGINATOR     = 

OBJECT_NAME    = STARLINK-36952
OBJECT_ID      = 2026-041Y
CENTER_NAME    = EARTH
REF_FRAME      = TEME
TIME_SYSTEM    = UTC
MEAN_ELEMENT_THEORY = SGP/SGP4

EPOCH          = 2026-03-20T09:51:11.771424
MEAN_MOTION    = 15.75275482
ECCENTRICITY   = .0001897
INCLINATION    = 53.1606
RA_OF_ASC_NODE = 8.4359
ARG_OF_PERICENTER = 52.0891
MEAN_ANOMALY   = 308.0300

EPHEMERIS_TYPE = 0
CLASSIFICATION_TYPE = U
NORAD_CAT_ID   = 68062
ELEMENT_SET_NO = 999
REV_AT_EPOCH   = 291
BSTAR          = .10243E-2
MEAN_MOTION_DOT = .159629E-2
MEAN_MOTION_DDOT = 0

CCSDS_OMM_VERS = 2.0
CREATION_DATE  = 
ORIGINATOR     = 

OBJECT_NAME    = STARLINK-37000
OBJECT_ID      = 2026-041Z
CENTER_NAME    = EARTH
REF_FRAME      = TEME
TIME_SYSTEM    = UTC
MEAN_ELEMENT_THEORY = SGP/SGP4

EPOCH          = 2026-03-19T09:06:55.838880
MEAN_MOTION    = 15.80839388
ECCENTRICITY   = .00003875
INCLINATION    = 53.1597
RA_OF_ASC_NODE = 13.3751
ARG_OF_PERICENTER = 129.0929
MEAN_ANOMALY   = 231.0129

EPHEMERIS_TYPE = 0
CLASSIFICATION_TYPE = U
NORAD_CAT_ID   = 68063
ELEMENT_SET_NO = 999
REV_AT_EPOCH   = 275
BSTAR          = -.12107026E-3
MEAN_MOTION_DOT = -.24486E-3
MEAN_MOTION_DDOT = 0

CCSDS_OMM_VERS = 2.0
CREATION_DATE  = 
ORIGINATOR     = 

OBJECT_NAME    = STARLINK-36996
OBJECT_ID      = 2026-041AA
CENTER_NAME    = EARTH
REF_FRAME      = TEME
TIME_SYSTEM    = UTC
MEAN_ELEMENT_THEORY = SGP/SGP4

EPOCH          = 2026-03-20T12:24:29.976768
MEAN_MOTION    = 15.80981385
ECCENTRICITY   = .0001552
INCLINATION    = 53.1596
RA_OF_ASC_NODE = 7.6672
ARG_OF_PERICENTER = 74.0326
MEAN_ANOMALY   = 286.0867

EPHEMERIS_TYPE = 0
CLASSIFICATION_TYPE = U
NORAD_CAT_ID   = 68064
ELEMENT_SET_NO = 999
REV_AT_EPOCH   = 293
BSTAR          = .16069E-2
MEAN_MOTION_DOT = .330547E-2
MEAN_MOTION_DDOT = 0

CCSDS_OMM_VERS = 2.0
CREATION_DATE  = 
ORIGINATOR     = 

OBJECT_NAME    = STARLINK-36836
OBJECT_ID      = 2026-041AB
CENTER_NAME    = EARTH
REF_FRAME      = TEME
TIME_SYSTEM    = UTC
MEAN_ELEMENT_THEORY = SGP/SGP4

EPOCH          = 2026-03-20T12:22:20.178048
MEAN_MOTION    = 15.80990691
ECCENTRICITY   = .0001201
INCLINATION    = 53.1596
RA_OF_ASC_NODE = 7.6568
ARG_OF_PERICENTER = 53.3850
MEAN_ANOMALY   = 306.7284

EPHEMERIS_TYPE = 0
CLASSIFICATION_TYPE = U
NORAD_CAT_ID   = 68065
ELEMENT_SET_NO = 999
REV_AT_EPOCH   = 293
BSTAR          = .16463E-2
MEAN_MOTION_DOT = .339144E-2
MEAN_MOTION_DDOT = 0

